#dP2021 12  6  0  0  0.00000000      96 __u+U ITR00 FIT  IAC
## 2187  86400.00000000   900.00000000 59554 0.0000000000000
+  113   C06C07C08C09C10C11C12C13C14C16C19C20C21C22C23C24C25
+        C26C27C28C29C30C32C33C34C35C36C37C38C39C40C41C42C43
+        C44C45C46E01E02E03E04E05E07E08E09E11E12E13E14E15E18
+        E19E21E24E25E26E27E30E31E33E36G01G02G03G04G05G06G07
+        G08G09G10G12G13G14G15G16G17G18G19G20G21G22G23G24G25
+        G26G27G28G29G30G31G32R01R02R03R04R05R07R08R09R11R12
+        R13R14R15R16R17R18R19R20R21R22R24  0  0  0  0  0  0
++         8  8 11  8  7  8  9 14  7  9  8  7  7  7  5  8  7
++         7  7  8  7  7  8  6  7  6  6  7  9  8  7  8  8  6
++         7  6  6  6  7  6  6  6  7  7  7  6  6  6  6  5  6
++         7  6  7  7  6  6  7  6  6  7  6  6  7  7  7  5  7
++         6  6  7  6  5  4  6  7  5  7  6  5  6  6  7  5  7
++         6  6  5  7  5  7  7  7  8  6  6  7  8  7  8  7  6
++         7  6  7  6  6  8  7  8  8  8  7  0  0  0  0  0  0
%c M  cc GPS ccc cccc cccc cccc cccc ccccc ccccc ccccc ccccc
%c cc cc ccc ccc cccc cccc cccc cccc ccccc ccccc ccccc ccccc
%f  0.0000000  0.000000000  0.00000000000  0.000000000000000
%f  0.0000000  0.000000000  0.00000000000  0.000000000000000
%i    0    0    0    0      0      0      0      0         0
%i    0    0    0    0      0      0      0      0         0
/* INFORMATION & ANALYSIS CENTER (IAC)      ULTRA-RAPID DATA
/* S/V CLOCKS ARE ALIGNED TO GNSS TIME                      
/* G:C1WC2W R:C1PC2P E:C1XC5X C:C2IC6I J:C1CC2S             
/* PCV:IGS14_2178 OL/AL:FES2004  NONE     YN ORB:CoN CLK:CoN
*  2021 12 06  3 45  0.00000000
PC06    205.464171  30723.851443  28938.258134    592.434379
PC07 -16231.238034  28687.903556 -26354.584590    155.583539
PC08 -10744.086855  40692.413414    116.676425    -46.766010
PC09   5595.172361  33891.342849  25062.535075   -324.774344
PC10  -7580.244355  28691.480702 -29843.786480    136.422249
PC11   9201.923062  23033.197434 -12676.767580   -350.645972
PC12  -7056.459190  14512.652091 -22719.869234   -424.061323
PC13  -6737.273020  41183.585533   4928.667712   -186.875228
PC14   1394.790806  15947.278897  22875.804259    507.365824
PC16  -4682.849471  27365.052194  31925.838974     14.043549
PC19 -12413.382602 -12423.172693 -21671.242821    926.301962
PC20   7700.006362 -16658.034652 -21010.197011   -792.927342
PC21 -24432.857257  11104.427870   7682.187748   -943.877106
PC22 -26121.694030   -889.001937  -9811.103836   -968.918926
PC23  15953.419937   3384.202535 -22642.133283   -963.126156
PC24  -7891.673629  26740.387376   -629.218396   -954.103519
PC25   6863.476229  20843.090204 -17231.466411   -814.249381
PC26 -15932.450714  17568.905530  14663.158780    811.899629
PC27  14791.225608  -6938.871844  22609.376436    640.655675
PC28  22068.647325  10772.210619  13255.243637      5.554374
PC29 -17188.283108 -21614.742664   4013.960435    483.777059
PC30  -1249.832232 -20281.373976  19116.975579    488.050706
PC32  24381.701728 -11245.581628  -7593.967439   -957.907235
PC33  12372.076117  12439.754931  21697.479278   -963.592849
PC34   2065.080537  20726.582052 -18586.490692   -521.138763
PC35 -22492.918696 -10423.191364 -12784.716717     33.015326
PC36  -6060.385630 -21346.819581  16950.407365   -823.634299
PC37  16594.702768 -16319.119828 -15403.093557   -905.968295
PC38 -15592.621604  37980.012689  -9173.112412    194.550069
PC39  -8209.643137  24201.838264  33550.896197     34.243575
PC40 -24149.576394  22638.314773 -26199.620255    224.001928
PC41  25974.364062   1125.836842  10196.928886   -915.626989
PC42  -8694.651121  16715.169963  20625.062457   -935.864586
PC43  16703.539576  21892.153233  -4596.719173   -956.247956
PC44 -14764.261381   7389.344462 -22499.180013    488.864156
PC45 -15895.137689  -3141.786777  22720.405499    619.413704
PC46   7043.628556 -26964.103754   1861.916906    -45.491076
PE01  10636.103996 -23703.461461  14201.811831   -531.972605
PE02 -10487.485055  23672.457169 -14321.302635    264.967589
PE03  -1079.325282  17307.570994  23977.776515   -503.369212
PE04 -19394.623387 -16499.156366 -15093.008349   -914.679271
PE05 -21295.046705   7968.243710  18945.289106   -228.630035
PE07  28855.520923   5888.677627  -2951.736198   -614.553604
PE08  19830.425127  16197.912583  14837.253760   5893.548334
PE09 -28888.346891  -5656.024897   3154.855070   5439.689668
PE11 -17327.614134  -7603.894931 -22762.675743   4949.006819
PE12 -12435.230855 -25462.094764  -8537.079956   4875.053257
PE13  17298.526799   8239.592355  22569.940557    424.399005
PE14  21970.061922   3156.838616   8967.909484  -1664.712583
PE15  12451.540483  25481.347219   8481.641911    776.922918
PE18 -26206.557454   3332.675716 -18708.116795  -1830.717217
PE19   3874.687412 -16518.838698 -24257.541933    445.064025
PE21  22486.826023 -19005.783079  -3107.073099   -703.635375
PE24 -21608.150930   1862.595222  20122.763471  -1264.361015
PE25 -22568.057377  18848.206642   3357.697040   -555.923370
PE26  11631.735192 -14812.185155  22846.840028   -536.800533
PE27  22062.438227  -3091.456137 -19492.471763   -180.491429
PE30   7586.950750  15448.161830 -24084.443522    -86.738693
PE31  -8652.601175 -14541.993185  24298.683204   -488.984995
PE33   -265.498175 -27646.933805  10581.041342   -461.761038
PE36 -11952.811611  13755.591949 -23316.895080   -299.880485
PG01  13350.503875  -8024.168517  21177.956085    491.723834
PG02 -14051.232061 -14915.409987 -16185.821544   -644.684689
PG03  22921.651147 -12288.757192   5015.190628    -32.824446
PG04  20543.915756  -2863.329251 -16631.757849   -199.950855
PG05 -20227.285985    269.475918 -17452.166587    -63.439621
PG06  -5692.514361 -25440.459850  -4841.991161    135.366878
PG07   6524.308877 -22298.445567 -12033.735481    287.332004
PG08  25182.050231   5319.616858   7212.760152    -46.968529
PG09  10426.381953 -12021.525147 -21343.557120   -360.917550
PG10  -4247.044547  18629.020111  18448.859946   -262.073082
PG12 -23796.793364   9483.705417   6485.752490   -136.588821
PG13 -23075.095336 -13234.974430   1376.033817    225.145552
PG14   5281.707487 -18757.387595  18019.128832    -50.471633
PG15 -25567.048004  -2446.691708   6997.663517   -101.280648
PG16  18422.161424   4249.445382 -19092.008817   -435.789156
PG17  -3613.478104 -17267.035266  20287.829502    543.505900
PG18  -6177.894444  22997.298691 -11662.136057    284.332433
PG19 -12401.980862 -18459.717130  14388.179617     88.460316
PG20 -13024.123785  -8987.748882 -21325.923068    517.778456
PG21  15959.147713   1966.124745  21894.643227    152.979421
PG22  22047.203969  -6799.952861  13142.062665   -448.160558
PG23 -14761.620718  19733.224813   9772.221647     25.018102
PG24 -15264.140692   3472.325930  21163.589378    272.961096
PG25 -19559.617302  17414.335176  -3674.739674    251.414394
PG26   7342.266539  14080.385909 -21332.796149    162.237321
PG27  23400.382575  12704.666778  -2940.761128   -227.626218
PG28  -2049.554928 -15996.853502  21677.247729    448.883981
PG29 -14828.727475   7680.144184 -20709.831490   -450.139093
PG30    -74.876649 -26280.293649  -2738.128795   -497.073897
PG31   7076.809816  24284.048544  -7371.406742   -153.639567
PG32   8698.631820  17693.100622  18000.776009    -31.189884
PR01  24595.577813  -4141.705508  -5334.495152     89.083556
PR02  10457.481195 -10216.935675 -20886.351548    502.372556
PR03  -8920.868581  -9940.542294 -21682.575897     47.652005
PR04 -22952.123109  -3985.045878 -10354.345069    117.503921
PR05 -24261.935411   4007.938803   6727.837835     83.698538
PR07   9731.506703   9817.439093  21480.340415    -39.441051
PR08  23004.446577   3995.980716  10354.982565    -62.392320
PR09 -10660.477948  23151.247043  -1698.716183     27.246727
PR11  10083.481260   4171.735307 -23045.396520     49.355327
PR12  15228.373235 -13793.949402 -15107.176290    284.174708
PR13  11162.157830 -22929.022104    685.326332    -64.457118
PR14    147.757753 -18677.148965  17378.594024     71.758797
PR15 -10490.240811  -3659.896341  22980.317344     99.782537
PR16 -14913.326918  15041.381914  14086.445206    -26.266528
PR17 -11391.723498 -22327.657226   4867.168521    481.058361
PR18 -16043.410893 -15870.807471 -11824.989609     99.534769
PR19 -12694.076549  -2395.729136 -21990.500259   -169.622037
PR20   -813.930004  16079.104857 -19784.753411    -60.669230
PR21  11971.376108  22237.893968  -3461.044871   -260.011910
PR22  15992.538030  15378.544931  12661.447902   -149.621951
PR24    360.697876 -16756.779382  19258.818846     69.962333
EOF
